[{"OBJECT_NAME":"NUSAT-48 (HENRIETTA LEAVITT)","OBJECT_ID":"2024-149AG","EPOCH":"2026-03-09T19:19:17.269536","MEAN_MOTION":15.29812597,"ECCENTRICITY":0.00027538,"INCLINATION":97.3923,"RA_OF_ASC_NODE":150.8264,"ARG_OF_PERICENTER":263.3026,"MEAN_ANOMALY":96.7901,"EPHEMERIS_TYPE":0,"CLASSIFICATION_TYPE":"U","NORAD_CAT_ID":60498,"ELEMENT_SET_NO":999,"REV_AT_EPOCH":8694,"BSTAR":0.00045211745,"MEAN_MOTION_DOT":0.00012988,"MEAN_MOTION_DDOT":0},{"OBJECT_NAME":"STARLINK-35272","OBJECT_ID":"2025-224T","EPOCH":"2026-03-09T03:18:38.807424","MEAN_MOTION":15.30219147,"ECCENTRICITY":0.00010919,"INCLINATION":53.1594,"RA_OF_ASC_NODE":13.6334,"ARG_OF_PERICENTER":73.1013,"MEAN_ANOMALY":287.0107,"EPHEMERIS_TYPE":0,"CLASSIFICATION_TYPE":"U","NORAD_CAT_ID":65899,"ELEMENT_SET_NO":999,"REV_AT_EPOCH":2478,"BSTAR":0.0011594227,"MEAN_MOTION_DOT":0.00034158,"MEAN_MOTION_DDOT":0}]
